[{"OBJECT_NAME":"FLOCK 4G-21","OBJECT_ID":"2025-009AU","EPOCH":"2026-03-09T04:40:37.351200","MEAN_MOTION":15.28381075,"ECCENTRICITY":4.655e-5,"INCLINATION":97.4032,"RA_OF_ASC_NODE":151.1274,"ARG_OF_PERICENTER":329.5782,"MEAN_ANOMALY":30.5431,"EPHEMERIS_TYPE":0,"CLASSIFICATION_TYPE":"U","NORAD_CAT_ID":62651,"ELEMENT_SET_NO":999,"REV_AT_EPOCH":6367,"BSTAR":0.00049618643,"MEAN_MOTION_DOT":0.00013648,"MEAN_MOTION_DDOT":0},{"OBJECT_NAME":"STARLINK-36513","OBJECT_ID":"2026-005AB","EPOCH":"2026-03-09T22:00:01.999584","MEAN_MOTION":15.27514264,"ECCENTRICITY":0.00018207,"INCLINATION":43.0014,"RA_OF_ASC_NODE":236.558,"ARG_OF_PERICENTER":276.181,"MEAN_ANOMALY":53.517,"EPHEMERIS_TYPE":0,"CLASSIFICATION_TYPE":"U","NORAD_CAT_ID":67429,"ELEMENT_SET_NO":999,"REV_AT_EPOCH":588,"BSTAR":0.0026396053,"MEAN_MOTION_DOT":0.00072949,"MEAN_MOTION_DDOT":0}]
